DIRECTV 11              
1 32729U 08013A   19175.46438289 -.00000123  00000-0  00000+0 0  9998
2 32729   0.0068 222.0292 0000148 164.3974 313.9045  1.00272329 41360
ICO G1                  
1 32763U 08016A   19175.46718626 -.00000170  00000-0  00000+0 0  9997
2 32763   3.6288   6.2497 0002063  80.5488 260.8605  1.00272076 40907
VINASAT-1               
1 32767U 08018A   19174.88223115 -.00000327  00000-0  00000-0 0  9997
2 32767   0.0107 354.8318 0001478 114.5037 251.9746  1.00272804 41034
STAR ONE C2             
1 32768U 08018B   19175.22290861 -.00000263  00000-0  00000+0 0  9997
2 32768   0.0593 116.9491 0002064  13.1605 152.2000  1.00269956 40972
TIANLIAN 1-01           
1 32779U 08019A   19175.50161909 -.00000137  00000-0  00000+0 0  9991
2 32779   3.3624  73.6952 0031334 251.4449 207.8314  1.00270818 40908
AMOS-3                  
1 32794U 08022A   19174.83878873 -.00000034  00000-0  00000-0 0  9999
2 32794   0.0498 110.5662 0001572 322.6931 136.2830  1.00273443 56806
GALAXY 18 (G-18)        
1 32951U 08024A   19175.46479057  .00000027  00000-0  00000+0 0  9997
2 32951   0.0122 309.0307 0003365 154.3443 213.2633  1.00272977 40515
CHINASAT 9 (ZX 9)       
1 33051U 08028A   19175.43228377 -.00000245  00000-0  00000+0 0  9990
2 33051   0.0138  67.3273 0003959  41.4692  51.3168  1.00270917 40449
SKYNET 5C               
1 33055U 08030A   19175.37996917 -.00000137  00000-0  00000+0 0  9992
2 33055   0.0577  10.4886 0004119  89.3151 291.4347  1.00272763 40334
TURKSAT 3A              
1 33056U 08030B   19175.49402956  .00000149  00000-0  00000+0 0  9993
2 33056   0.0555  86.8679 0005636   7.5751  37.7453  1.00270888 40516
INTELSAT 25 (IS-25)     
1 33153U 08034A   19175.47939929 -.00000221  00000-0  00000+0 0  9990
2 33153   0.0279 258.2946 0000503 171.4325 343.6901  1.00272709 40077
BADR-6                  
1 33154U 08034B   19175.28243760  .00000146  00000-0  00000+0 0  9996
2 33154   0.0571  41.5153 0005401  38.3434 319.9521  1.00270675 40186
ECHOSTAR 11             
1 33207U 08035A   19175.03300125 -.00000055  00000-0  00000+0 0  9998
2 33207   0.0139  10.8410 0002670  87.2170  75.7132  1.00270221 40086
SUPERBIRD-C2            
1 33274U 08038A   19174.94558177 -.00000250  00000-0  00000-0 0  9994
2 33274   0.0385 111.3570 0001501 345.7031 299.1119  1.00271963 80150
AMC-21                  
1 33275U 08038B   19174.67111209  .00000037  00000-0  00000+0 0  9997
2 33275   0.0139  25.9929 0002775  75.4116 286.8240  1.00272866 39897
INMARSAT 4-F3           
1 33278U 08039A   19175.46438289 -.00000138  00000-0  00000+0 0  9992
2 33278   3.0540   9.3791 0002774  88.2589 243.8675  1.00271182 39690
NIMIQ 4                 
1 33373U 08044A   19175.01768199 -.00000219  00000-0  00000+0 0  9991
2 33373   0.0150  51.7076 0002349  28.7377 115.7996  1.00270979 39268
GALAXY 19 (G-19)        
1 33376U 08045A   19175.42479977 -.00000137  00000-0  00000+0 0  9992
2 33376   0.0034 111.2564 0003488 353.1075 223.8448  1.00272159 39266
VENESAT-1               
1 33414U 08055A   19175.54190112 -.00000235  00000-0  00000+0 0  9999
2 33414   0.0303 225.8198 0001220 214.6772 308.9660  1.00274331 38983
ASTRA 1M                
1 33436U 08057A   19174.84341222  .00000121  00000-0  00000-0 0  9991
2 33436   0.0284 116.2695 0004972 357.8583 120.3987  1.00270109 20165
CIEL-2                  
1 33453U 08063A   19175.14725971  .00000060  00000-0  00000+0 0  9999
2 33453   0.0381 108.5976 0003067 343.2443 104.3224  1.00272827 38575
EUTELSAT HOT BIRD 13C   
1 33459U 08065A   19175.34465236  .00000089  00000-0  00000+0 0  9995
2 33459   0.0736  68.8983 0006022  25.3510 315.0087  1.00272027 38680
EUTELSAT 48D            
1 33460U 08065B   19175.49525087  .00000127  00000-0  00000+0 0  9997
2 33460   0.0456  10.7969 0002386 102.6970  25.2077  1.00271920 38544
FENGYUN 2E              
1 33463U 08066A   19174.85684656 -.00000200  00000-0  00000+0 0  9991
2 33463   3.6097  69.1950 0002897 261.8395 335.6759  1.00266168 38511
EXPRESS-AM44            
1 33595U 09007A   19174.69379344 -.00000088  00000-0  00000+0 0  9994
2 33595   0.0475 183.0765 0000649 267.7624  59.4779  1.00271676 37984
NSS-9                   
1 33749U 09008A   19175.16325191  .00000074  00000-0  00000+0 0  9994
2 33749   0.0154  13.9951 0002067  80.4463  59.4138  1.00273474 37992
EUTELSAT 33E            
1 33750U 09008B   19175.17880365  .00000157  00000-0  00000+0 0  9998
2 33750   0.0506   3.6713 0004256  96.7581 269.0705  1.00273258 38035
TELSTAR 11N             
1 34111U 09009A   19174.90391288 -.00000249  00000-0  00000-0 0  9996
2 34111   0.0180  15.4433 0002467  70.7811 113.3958  1.00273094 20675
EUTELSAT 10A            
1 34710U 09016A   19175.30515279  .00000070  00000-0  00000+0 0  9992
2 34710   0.0654  21.6340 0005480  71.3855 298.9893  1.00273206 37407
WGS F2 (USA 204)        
1 34713U 09017A   19174.91036892  .00000048  00000-0  00000-0 0  9997
2 34713   0.0187  16.6337 0000107 167.1973 115.9027  1.00272649 20046
SES-7 (PROTOSTAR 2)     
1 34941U 09027A   19175.43551150 -.00000343  00000-0  00000+0 0  9996
2 34941   0.0295  84.6918 0000501  95.4790 357.1654  1.00271807 37057
MEASAT-3A               
1 35362U 09032A   19175.43219654 -.00000239  00000-0  00000+0 0  9994
2 35362   0.0465 201.4761 0001774 310.6115   7.3066  1.00272869 36661
GOES 14                 
1 35491U 09033A   19175.46993984 -.00000089  00000-0  00000+0 0  9999
2 35491   0.2935 102.8752 0007319 113.9161 120.1028  1.00270595 36585
SIRIUS FM-5             
1 35493U 09034A   19174.89422970 -.00000199  00000-0  00000-0 0  9993
2 35493   0.0227 302.2740 0000830 103.4952 101.7663  1.00271419 21136
TERRESTAR-1             
1 35496U 09035A   19174.88925726 -.00000055  00000-0  00000-0 0  9994
2 35496   2.5051   4.8379 0002575  89.2153  26.8229  1.00272284 36600
ASIASAT 5               
1 35696U 09042A   19174.88452193 -.00000306  00000-0  00000-0 0  9996
2 35696   0.0339  90.2869 0001444 337.5534 262.8468  1.00270314 36118
JCSAT-RA (JCSAT-12)     
1 35755U 09044A   19174.65793946 -.00000031  00000-0  00000+0 0  9997
2 35755   0.0865 270.3367 0002338 186.2979 220.6337  1.00273110 36087
OPTUS D3                
1 35756U 09044B   19175.09285587 -.00000145  00000-0  00000+0 0  9990
2 35756   0.0254   0.2696 0003530  78.4692  22.6561  1.00272710 36066
PALAPA D                
1 35812U 09046A   19173.93400880 -.00000359  00000-0  00000+0 0  9998
2 35812   0.0201  75.6989 0002416  48.4413 235.8773  1.00271791 36096
NIMIQ 5                 
1 35873U 09050A   19175.24004875 -.00000255  00000-0  00000+0 0  9995
2 35873   0.0177  10.2754 0003321  93.1624 182.3795  1.00272081 35785
AMAZONAS 2              
1 35942U 09054A   19175.14493689 -.00000281  00000-0  00000+0 0  9999
2 35942   0.0543 123.7202 0004723 348.0125 151.4625  1.00271012 35605
COMSATBW-1              
1 35943U 09054B   19175.42643897  .00000026  00000-0  00000+0 0  9995
2 35943   0.0440  81.6545 0003524  19.0066  28.1635  1.00273917 35697
NSS-12                  
1 36032U 09058A   19174.87364910  .00000072  00000-0  00000-0 0  9995
2 36032   0.0142 344.6189 0003140 123.7767 174.8586  1.00273049 35361
THOR 6                  
1 36033U 09058B   19175.34194804 -.00000008  00000-0  00000+0 0  9991
2 36033   0.0057  66.6538 0001872  22.4512 305.3594  1.00271575 35406
INTELSAT 14 (IS-14)     
1 36097U 09064A   19174.88355770 -.00000272  00000-0  00000-0 0  9991
2 36097   0.0187  85.3185 0002659  12.7537  86.7585  1.00272054 35132
EUTELSAT 36B            
1 36101U 09065A   19175.27688326  .00000157  00000-0  00000+0 0  9998
2 36101   0.0658  21.4827 0004771  74.5758 311.6511  1.00274597 35248
INTELSAT 15 (IS-15)     
1 36106U 09067A   19175.43088801 -.00000183  00000-0  00000+0 0  9995
2 36106   0.0134 354.9898 0002415 106.7115  50.8578  1.00271568 35039
WGS F3 (USA 211)        
1 36108U 09068A   19175.41152163 -.00000094  00000-0  00000+0 0  9990
2 36108   0.0196   8.8195 0000284 153.3088 246.3056  1.00273924 34954
DIRECTV 12              
1 36131U 09075A   19175.46993984 -.00000100  00000-0  00000+0 0  9991
2 36131   0.0141 218.2455 0000902 315.5141 164.9499  1.00269193 34819
BEIDOU 3                
1 36287U 10001A   19174.90960727 -.00000282  00000-0  00000-0 0  9993
2 36287   1.3962 358.2054 0003796 143.7882 237.3393  1.00270945 34616
RADUGA-1M 2             
1 36358U 10002A   19175.43088801 -.00000181  00000-0  00000+0 0  9993
2 36358   0.0346 228.2402 0002108 247.4565  36.7091  1.00272055 34447
SDO                     
1 36395U 10005A   19174.89100198 -.00000053  00000-0  00000+0 0  9998
2 36395  29.7438 127.4542 0001480  11.5866 351.7439  1.00272381 34469
INTELSAT 16 (IS-16)     
1 36397U 10006A   19175.38116448 -.00000243  00000-0  00000+0 0  9992
2 36397   0.0187  12.6203 0002333  99.7501 220.9060  1.00272767 34167
GOES 15                 
1 36411U 10008A   19175.52391685  .00000055  00000-0  00000+0 0  9995
2 36411   0.2259 100.8774 0002652  17.5789 214.4567  1.00280026 34100
ECHOSTAR 14             
1 36499U 10010A   19175.47996993  .00000003  00000-0  00000+0 0  9994
2 36499   0.0173 329.6339 0002727 122.8844 233.7082  1.00271806 33967
SES-1                   
1 36516U 10016A   19175.46438289 -.00000112  00000-0  00000+0 0  9990
2 36516   0.0137 332.6245 0002490 128.0039 237.8797  1.00272474 33575
ASTRA 3B                
1 36581U 10021A   19174.84428458  .00000138  00000-0  00000-0 0  9994
2 36581   0.0622 307.2234 0003282 161.1907 130.7560  1.00275132 33308
COMSATBW-2              
1 36582U 10021B   19175.24917512  .00000090  00000-0  00000+0 0  9990
2 36582   0.0167  17.6809 0002959  88.6044 268.7015  1.00270313 33424
BADR-5                  
1 36592U 10025A   19175.06013161  .00000146  00000-0  00000+0 0  9994
2 36592   0.0349 120.9228 0004981   3.4877 195.1481  1.00270072 33327
